CONNECTA IOT-3          
1 60475U 24149H   26068.78779042  .00005770  00000+0  24862-3 0  9991
2 60475  97.3789 146.5718 0001654 234.1759 125.9324 15.22958192 86673
HERMES-1                
1 63242U 25052AJ  26068.69342910  .00006601  00000+0  30413-3 0  9993
2 63242  97.4020 322.1122 0007734 159.5432 200.6114 15.20586525 54679
