[{"OBJECT_NAME":"CONNECTA IOT-3","OBJECT_ID":"2024-149H","EPOCH":"2026-03-09T18:54:25.092288","MEAN_MOTION":15.22958192,"ECCENTRICITY":0.00016542,"INCLINATION":97.3789,"RA_OF_ASC_NODE":146.5718,"ARG_OF_PERICENTER":234.1759,"MEAN_ANOMALY":125.9324,"EPHEMERIS_TYPE":0,"CLASSIFICATION_TYPE":"U","NORAD_CAT_ID":60475,"ELEMENT_SET_NO":999,"REV_AT_EPOCH":8667,"BSTAR":0.0002486185,"MEAN_MOTION_DOT":5.77e-5,"MEAN_MOTION_DDOT":0},{"OBJECT_NAME":"HERMES-1","OBJECT_ID":"2025-052AJ","EPOCH":"2026-03-09T16:38:32.274240","MEAN_MOTION":15.20586525,"ECCENTRICITY":0.00077337,"INCLINATION":97.402,"RA_OF_ASC_NODE":322.1122,"ARG_OF_PERICENTER":159.5432,"MEAN_ANOMALY":200.6114,"EPHEMERIS_TYPE":0,"CLASSIFICATION_TYPE":"U","NORAD_CAT_ID":63242,"ELEMENT_SET_NO":999,"REV_AT_EPOCH":5467,"BSTAR":0.00030412642,"MEAN_MOTION_DOT":6.601e-5,"MEAN_MOTION_DDOT":0}]
